#cP2017 10 19  0  0  0.00000000      96 ORBIT IGS14 HLM  IGS
## 1971 345600.00000000   900.00000000 58045 0.0000000000000
+   32   G01G02G03G04G05G06G07G08G09G10G11G12G13G14G15G16G17
+        G18G19G20G21G22G23G24G25G26G27G28G29G30G31G32  0  0
+          0  0  0  0  0  0  0  0  0  0  0  0  0  0  0  0  0
+          0  0  0  0  0  0  0  0  0  0  0  0  0  0  0  0  0
+          0  0  0  0  0  0  0  0  0  0  0  0  0  0  0  0  0
++         2  2  2  0  2  2  2  2  2  2  2  2  2  2  2  2  2
++         2  2  2  2  2  2  2  2  0  2  2  2  2  2  2  0  0
++         0  0  0  0  0  0  0  0  0  0  0  0  0  0  0  0  0
++         0  0  0  0  0  0  0  0  0  0  0  0  0  0  0  0  0
++         0  0  0  0  0  0  0  0  0  0  0  0  0  0  0  0  0
%c G  cc GPS ccc cccc cccc cccc cccc ccccc ccccc ccccc ccccc
%c cc cc ccc ccc cccc cccc cccc cccc ccccc ccccc ccccc ccccc
%f  1.2500000  1.025000000  0.00000000000  0.000000000000000
%f  0.0000000  0.000000000  0.00000000000  0.000000000000000
%i    0    0    0    0      0      0      0      0         0
%i    0    0    0    0      0      0      0      0         0
/* RAPID ORBIT COMBINATION FROM WEIGHTED AVERAGE OF:        
/* cod emr esa gfz jpl ngs sio usn whu                      
/* REFERENCED TO IGS TIME (IGST) AND TO WEIGHTED MEAN POLE: 
/* PCV:IGS14_1967 OL/AL:FES2004  NONE     Y  ORB:CMB CLK:CMB
*  2017 10 19 17 15  0.00000000
PG01   5373.210680  14278.229169 -21892.981968     -5.146431  7  4  6 101       
PG02  17192.479910 -14854.841074  14020.899710    302.410177  5 10  5  69       
PG03  12309.973152  22218.429955  -7857.471552    -53.867251  5  7  5  80       
PG04 -13169.333390  19205.749831  12080.808175 999999.999999
PG05   5501.847456 -15798.440056  20485.318614    -25.501835  7  7     79       
PG06  25500.938011  -7033.706835   2471.511041    405.383630  5  6  3  65       
PG07  20314.252014   7537.547451  15853.676046    291.096864  5  3  4  75       
PG08  -5231.516765  25638.757047  -4158.002695    -77.577198  5  6  4 112       
PG09  10812.677537  13318.025294  20247.135373    460.106780  1  7  4  86       
PG10 -20134.363177  -5152.168007 -16589.648989     92.350902  3  4  4  74       
PG11    954.605400  18362.225313 -19772.303841   -722.133039  4  6  1  98       
PG12  -8290.127875 -22721.530460 -11361.415408    368.457327  8  9  8 120       
PG13  12137.267179 -23591.025935   1398.299201    -92.963689  6  9  4  93       
PG14 -17049.563127  12943.380795 -15337.438974    -86.597112  4  5  7  59       
PG15   1317.159057 -25532.682478  -6597.560657   -356.721097  4  8  4 111       
PG16  -6088.223380  14836.014518  20954.134015     36.846232  7  9  2  96       
PG17  16054.714955  -3580.515757 -20448.212165   -149.995950  1  6  2 104       
PG18 -21247.025578 -14203.966564  -6964.288370    631.592531  6  7  4  85       
PG19  17447.260134 -11805.217203 -16592.720191   -480.334495  4  9  4  95       
PG20 -10230.603688 -21431.459868  11770.661643    490.196893  6 10  6  83       
PG21 -22338.419195  -5140.045026  14262.908341   -469.776419  4  8  8  99       
PG22   6171.928059  21484.495327 -14082.668727   -160.275017  5 10  4 103       
PG23   4284.615470  21607.835889  14782.607935   -218.213150  6  8  5 110       
PG24  -2446.765205 -15465.892455 -21534.360779    -41.101828 10  7  4  76       
PG25 -17492.850118 -20146.548777   -256.266172   -475.351813  6  4  4  99       
PG26 -14038.536262   6999.097642  21447.840000 999999.999999
PG27 -12438.874895  22164.899048   7242.911507    338.876642  6  4  6 108       
PG28  19434.687104  10417.916328 -14163.332463    655.378062  4  6  6 125       
PG29  -6425.032706 -17645.882208  18775.538419    549.127282  7  8  4  76       
PG30  25806.522909    990.026513   6531.154307    133.690107  6  7  5  93       
PG31 -24994.494300   8038.402225   5327.839638    167.799395  5  4  8  98       
PG32 -16638.286135   6889.493295 -19476.981702   -514.918273  3  5  6 105       
*  2017 10 19 17 30  0.00000000
PG01   2959.796616  14836.391398 -21957.295625     -5.147720  7  5  5 109       
PG02  18615.906724 -15019.847166  11730.670065    302.401589  4 10  5  61       
PG03  11425.957565  21617.505698 -10444.186437    -53.862797  5  7  5  74       
PG04 -13110.978527  17629.121964  14354.406924 999999.999999
PG05   7247.589156 -14132.701097  21163.423997    -25.500618  6  6     88       
PG06  25669.368394  -6834.544822   -395.228240    405.385669  5  6  2  74       
PG07  18517.401337   8067.525624  17671.223644    291.092451  5  5  3  65       
PG08  -5550.869807  25879.304055  -1303.834761    -77.578989  5  6  4 110       
PG09  10082.722937  15457.302042  19070.311141    460.111626  1  7  3  76       
PG10 -21239.934019  -6563.308571 -14608.447001     92.358592  2  4  5  54       
PG11   -830.266458  19498.150761 -18634.310612   -722.134606  4  7    109       
PG12  -7290.563298 -21729.141070 -13752.840563    368.455986  8  9  7 104       
PG13  12214.048379 -23193.446950   4246.139379    -92.964237  5  9  4 102       
PG14 -16534.113275  11089.154050 -17220.392410    -86.597474  3  5  6  76       
PG15   1794.439234 -26030.846746  -3870.918481   -356.721341  4  8  4 106       
PG16  -7685.286638  12953.021415  21695.827781     36.845926  6  8  2  80       
PG17  15303.354019  -1234.043251 -21282.461065   -149.993705  1  5  2  80       
PG18 -21528.634426 -14938.258173  -4290.005456    631.593441  5  7  4 101       
PG19  16817.681150  -9968.335240 -18363.308661   -480.332499  4  8  4  84       
PG20  -8910.430925 -20662.349357  13980.551452    490.198153  5 10  6  79       
PG21 -20828.741197  -5775.977610  16269.059795   -469.773466  4  8  7 114       
PG22   4711.842372  20448.119609 -16026.145787   -160.285938  4  9  4  79       
PG23   3616.322395  23025.358944  12584.743910   -218.213584  6  8  6  96       
PG24    -89.046834 -16073.223588 -21201.218724    -41.101781 10  7  4  84       
PG25 -17231.846243 -20151.953213  -3120.760202   -475.357503  6  4  5 107       
PG26 -15685.107129   5229.571455  20810.327019 999999.999999
PG27 -12362.498033  21152.469433   9910.987071    338.880350  6  4  6  85       
PG28  20293.608700  11751.725342 -11824.344128    655.380964  4  6  6 122       
PG29  -5621.619496 -19534.069971  17090.156123    549.123028  7  8  4  92       
PG30  24972.862648   1409.913159   9155.495521    133.687951  6  7  5  88       
PG31 -25464.724936   7923.337910   2533.214748    167.797232  5  5  8 113       
PG32 -16098.634512   4652.681752 -20566.747520   -514.922163  3  5  6 111       
*  2017 10 19 17 45  0.00000000
PG01    590.363945  15520.113555 -21648.209897     -5.148987  7  5  4 109       
PG02  19781.244987 -15163.171694   9240.426386    302.393229  3 10  5  87       
PG03  10306.208870  20869.960971 -12851.721961    -53.858319  5  7  4  78       
PG04 -13098.130070  15808.793999  16371.964443 999999.999999
PG05   9113.789105 -12518.909175  21473.250681    -25.499553  6  5     75       
PG06  25538.009945  -6549.531005  -3255.168519    405.387690  5  6  3  62       
PG07  16570.206627   8743.533850  19193.974710    291.087768  5  7  3  81       
PG08  -5785.976013  25818.617786   1572.933346    -77.580325  4  6  4 108       
PG09   9495.709691  17482.660000  17564.508730    460.116486  2  7  3  84       
PG10 -22243.425268  -7751.508753 -12376.989852     92.366294  2  4  5  95       
PG11  -2456.544637  20621.740706 -17190.476788   -722.136625  4  7  1 104       
PG12  -6060.282983 -20609.420668 -15912.036027    368.454450  8  9  7 122       
PG13  12204.453205 -22500.137212   7020.838073    -92.964776  5  9  4 101       
PG14 -16054.950222   9021.009572 -18798.935466    -86.598580  3  6  6  71       
PG15   2201.290473 -26241.196888  -1076.290094   -356.722035  4  8  3 124       
PG16  -9425.141666  11118.113603  22057.884461     36.845993  6  8  3  92       
PG17  14660.073226   1220.821829 -21737.081458   -149.991650  2  4  2 114       
PG18 -21613.752498 -15455.106242  -1541.764795    631.593762  5  8  4 106       
PG19  16233.914405  -7927.813277 -19827.034892   -480.330737  5  6  4 109       
PG20  -7367.400379 -19811.505033  15947.951224    490.198833  5 10  6  91       
PG21 -19161.743995  -6551.384834  18010.257084   -469.770393  5  8  7 104       
PG22   3048.883465  19346.376336 -17688.906702   -160.297767  5  9  4  92       
PG23   3072.576440  24221.588978  10168.558783   -218.213604  6  7  5 106       
PG24   2183.522741 -16778.520791 -20505.126658    -41.103355 10  7  4  90       
PG25 -16739.762925 -19951.617214  -5932.378800   -475.363198  5  3  5 124       
PG26 -17352.222984   3610.421977  19815.485159 999999.999999
PG27 -12275.214366  19850.344119  12405.941384    338.884055  5  5  5 103       
PG28  21036.139856  12821.455710  -9274.840826    655.383886  5  6  5 128       
PG29  -4983.311359 -21264.355674  15110.557712    549.118683  7  9  4  96       
PG30  23882.261887   1938.242420  11623.589727    133.685795  6  7  5  84       
PG31 -25635.660623   7751.423847   -303.903215    167.794818  4  6  8 111       
PG32 -15652.175759   2290.636352 -21301.385915   -514.926049  4  5  6 108       
EOF
